ATLAS CENTAUR 2         
1 00694U 63047A   25325.50832025  .00004524  00000+0  54304-3 0  9994
2 00694  30.3560  80.0273 0549566 207.1965 149.8816 14.11575163116327
THOR AGENA D R/B        
1 00733U 64002A   25325.57994836  .00000244  00000+0  10447-3 0  9991
2 00733  99.1219 328.0542 0032352 211.8233 148.0995 14.33941577222809
SL-3 R/B                
1 00877U 64053B   25325.28779946  .00000526  00000+0  12685-3 0  9996
2 00877  65.0769 289.0122 0071908 327.5664  32.1026 14.61242584250951
SL-8 R/B                
1 02802U 67045B   25325.06161017  .00000315  00000+0  94844-4 0  9994
2 02802  74.0101 190.9407 0065214 225.1244 134.4608 14.45512638 73325
SL-8 R/B                
1 03230U 68040B   25325.59864197  .00003655  00000+0  27783-3 0  9990
2 03230  74.0295 174.4002 0024086  21.5347 338.6848 15.02329188 73770
OAO 2                   
1 03597U 68110A   25325.53863024  .00000275  00000+0  79265-4 0  9994
2 03597  34.9916 149.0172 0005044  44.1345 315.9747 14.47224808  3421
ISIS 1                  
1 03669U 69009A   25325.55261520  .00000174  00000+0  12636-3 0  9993
2 03669  88.4501 167.1136 1707127 307.5209  38.2277 11.30342499336319
SERT 2                  
1 04327U 70009A   25325.46189669  .00000034  00000+0  10235-3 0  9998
2 04327  99.2615 269.5530 0005704  81.5022  27.3838 13.58713602765199
SL-3 R/B                
1 05118U 71028B   25325.61524139  .00026884  00000+0  42626-3 0  9991
2 05118  81.2384 184.6390 0020298 318.0030  41.9661 15.52994401971857
ASTEX 1                 
1 05560U 71089A   25325.45898711  .00000659  00000+0  16798-3 0  9994
2 05560  92.7129 116.7360 0017892  90.4013 269.9243 14.50605170846615
SL-8 R/B                
1 05730U 71119B   25325.57028492  .00008633  00000+0  45608-3 0  9993
2 05730  73.8892  17.4227 0560711   5.9828 354.7652 14.35164756639966
OAO 3 (COPERNICUS)      
1 06153U 72065A   25325.01075567  .00000389  00000+0  84490-4 0  9991
2 06153  35.0045 196.4460 0006796 344.9085 149.2411 14.59879373830307
